{
    "links": {
        "self": "http://www.neowsapp.com/rest/v1/neo/3719478?api_key=iIulBulltgU6a56xZRHN4H3l9WmuAYTsLGpBGhQ2"
    },
    "id": "3719478",
    "neo_reference_id": "3719478",
    "name": "(2015 KT56)",
    "designation": "2015 KT56",
    "nasa_jpl_url": "http://ssd.jpl.nasa.gov/sbdb.cgi?sstr=3719478",
    "absolute_magnitude_h": 26.1,
    "estimated_diameter": {
        "kilometers": {
            "estimated_diameter_min": 0.0160160338,
            "estimated_diameter_max": 0.0358129403
        },
        "meters": {
            "estimated_diameter_min": 16.0160337979,
            "estimated_diameter_max": 35.8129403019
        },
        "miles": {
            "estimated_diameter_min": 0.0099518989,
            "estimated_diameter_max": 0.0222531225
        },
        "feet": {
            "estimated_diameter_min": 52.5460443254,
            "estimated_diameter_max": 117.4965270602
        }
    },
    "is_potentially_hazardous_asteroid": false,
    "close_approach_data": [
        {
            "close_approach_date": "2015-05-18",
            "close_approach_date_full": "2015-May-18 14:12",
            "epoch_date_close_approach": 1431958320000,
            "relative_velocity": {
                "kilometers_per_second": "9.5919937881",
                "kilometers_per_hour": "34531.1776371912",
                "miles_per_hour": "21456.3309046203"
            },
            "miss_distance": {
                "astronomical": "0.0257610167",
                "lunar": "10.0210354963",
                "kilometers": "3853793.227354429",
                "miles": "2394636.0707279602"
            },
            "orbiting_body": "Earth"
        }
    ],
    "orbital_data": {
        "orbit_id": "9",
        "orbit_determination_date": "2017-04-06 08:33:38",
        "first_observation_date": "2015-05-21",
        "last_observation_date": "2015-06-16",
        "data_arc_in_days": 26,
        "observations_used": 24,
        "orbit_uncertainty": "7",
        "minimum_orbit_intersection": ".0113928",
        "jupiter_tisserand_invariant": "3.379",
        "epoch_osculation": "2459000.5",
        "eccentricity": ".5664512774818897",
        "semi_major_axis": "2.268902408693244",
        "inclination": "4.070133424405344",
        "ascending_node_longitude": "239.4894359946557",
        "orbital_period": "1248.309142113174",
        "perihelion_distance": ".9836797408072194",
        "perihelion_argument": "327.8788024026063",
        "aphelion_distance": "3.554125076579269",
        "perihelion_time": "2458386.562965379774",
        "mean_anomaly": "177.0533636316538",
        "mean_motion": ".2883901013418692",
        "equinox": "J2000",
        "orbit_class": {
            "orbit_class_type": "APO",
            "orbit_class_description": "Near-Earth asteroid orbits which cross the Earth’s orbit similar to that of 1862 Apollo",
            "orbit_class_range": "a (semi-major axis) > 1.0 AU; q (perihelion) < 1.017 AU"
        }
    },
    "is_sentry_object": false
}